[{"OBJECT_NAME":"STARLINK-32843","OBJECT_ID":"2025-018J","EPOCH":"2026-03-09T22:19:18.526656","MEAN_MOTION":15.30173144,"ECCENTRICITY":8.818e-5,"INCLINATION":53.161,"RA_OF_ASC_NODE":308.5895,"ARG_OF_PERICENTER":124.1197,"MEAN_ANOMALY":235.9888,"EPHEMERIS_TYPE":0,"CLASSIFICATION_TYPE":"U","NORAD_CAT_ID":62814,"ELEMENT_SET_NO":999,"REV_AT_EPOCH":6320,"BSTAR":0.0013315326,"MEAN_MOTION_DOT":0.00039253,"MEAN_MOTION_DDOT":0},{"OBJECT_NAME":"OBJECT BC","OBJECT_ID":"2025-313BC","EPOCH":"2026-03-09T04:33:08.504064","MEAN_MOTION":15.29126358,"ECCENTRICITY":0.00084789,"INCLINATION":97.3985,"RA_OF_ASC_NODE":144.811,"ARG_OF_PERICENTER":328.9209,"MEAN_ANOMALY":31.1528,"EPHEMERIS_TYPE":0,"CLASSIFICATION_TYPE":"U","NORAD_CAT_ID":67298,"ELEMENT_SET_NO":999,"REV_AT_EPOCH":789,"BSTAR":0.0026410397,"MEAN_MOTION_DOT":0.00075331,"MEAN_MOTION_DDOT":0}]
